start=new Date('2022-07-03T00:00:00.000Z').valueOf();
sats=[{"ARG_OF_PERICENTER":"73.7336","TLE_LINE1":"1 44968U 20001BG  22183.84687460  .00001986  00000-0  15218-3 0  9997","MEAN_ANOMALY":"286.3819","LAUNCH_DATE":"2020-01-07","MEAN_ELEMENT_THEORY":"SGP4","MEAN_MOTION":"15.06407381","APOAPSIS":"548.239","MEAN_MOTION_DDOT":"0.0000000000000","RCS_SIZE":"LARGE","NORAD_CAT_ID":"44968","OBJECT_NAME":"STARLINK-1090","ECCENTRICITY":"0.00015140","ELEMENT_SET_NO":"999","CENTER_NAME":"EARTH","RA_OF_ASC_NODE":"228.3491","FILE":"3506759","REV_AT_EPOCH":"13756","BSTAR":"0.00015218000000","PERIOD":"95.592","GP_ID":"207272983","COUNTRY_CODE":"US","TIME_SYSTEM":"UTC","SITE":"AFETR","EPHEMERIS_TYPE":"0","OBJECT_ID":"2020-001BG","SEMIMAJOR_AXIS":"6925.326","CLASSIFICATION_TYPE":"U","REF_FRAME":"TEME","INCLINATION":"53.0532","DECAY_DATE":null,"PERIAPSIS":"546.142","TLE_LINE2":"2 44968  53.0532 228.3491 0001514  73.7336 286.3819 15.06407381137564","EPOCH":"2022-07-02T20:19:29.965440","MEAN_MOTION_DOT":"0.00001986","OBJECT_TYPE":"PAYLOAD"},{"NORAD_CAT_ID":"44969","OBJECT_NAME":"STARLINK-1092","RCS_SIZE":"LARGE","RA_OF_ASC_NODE":"229.8732","FILE":"3506647","REV_AT_EPOCH":"13750","ECCENTRICITY":"0.00012870","ELEMENT_SET_NO":"999","CENTER_NAME":"EARTH","BSTAR":"0.00008236400000","TLE_LINE1":"1 44969U 20001BH  22183.50778999  .00000945  00000-0  82364-4 0  9990","MEAN_ANOMALY":"279.8256","ARG_OF_PERICENTER":"80.2879","MEAN_MOTION":"15.06392736","MEAN_ELEMENT_THEORY":"SGP4","LAUNCH_DATE":"2020-01-07","APOAPSIS":"548.127","MEAN_MOTION_DDOT":"0.0000000000000","SEMIMAJOR_AXIS":"6925.371","REF_FRAME":"TEME","CLASSIFICATION_TYPE":"U","DECAY_DATE":null,"INCLINATION":"53.0547","TLE_LINE2":"2 44969  53.0547 229.8732 0001287  80.2879 279.8256 15.06392736137500","EPOCH":"2022-07-02T12:11:13.055136","MEAN_MOTION_DOT":"0.00000945","PERIAPSIS":"546.345","OBJECT_TYPE":"PAYLOAD","COUNTRY_CODE":"US","GP_ID":"207264653","PERIOD":"95.593","SITE":"AFETR","TIME_SYSTEM":"UTC","EPHEMERIS_TYPE":"0","OBJECT_ID":"2020-001BH"},{"LAUNCH_DATE":"2020-01-07","MEAN_ELEMENT_THEORY":"SGP4","MEAN_MOTION":"15.06393680","MEAN_MOTION_DDOT":"0.0000000000000","APOAPSIS":"548.089","ARG_OF_PERICENTER":"83.0546","MEAN_ANOMALY":"277.0583","TLE_LINE1":"1 44970U 20001BJ  22183.81739167 -.00000540  00000-0 -17356-4 0  9992","BSTAR":"-0.00001735600000","RCS_SIZE":"LARGE","OBJECT_NAME":"STARLINK-1093","NORAD_CAT_ID":"44970","CENTER_NAME":"EARTH","ELEMENT_SET_NO":"999","ECCENTRICITY":"0.00012360","REV_AT_EPOCH":"13754","FILE":"3506760","RA_OF_ASC_NODE":"228.4683","TIME_SYSTEM":"UTC","SITE":"AFETR","OBJECT_ID":"2020-001BJ","EPHEMERIS_TYPE":"0","PERIOD":"95.593","COUNTRY_CODE":"US","GP_ID":"207272993","PERIAPSIS":"546.377","MEAN_MOTION_DOT":"-0.00000540","EPOCH":"2022-07-02T19:37:02.640288","TLE_LINE2":"2 44970  53.0535 228.4683 0001236  83.0546 277.0583 15.06393680137541","OBJECT_TYPE":"PAYLOAD","CLASSIFICATION_TYPE":"U","REF_FRAME":"TEME","SEMIMAJOR_AXIS":"6925.368","INCLINATION":"53.0535","DECAY_DATE":null},{"OBJECT_TYPE":"PAYLOAD","EPOCH":"2022-07-02T12:32:25.939680","MEAN_MOTION_DOT":"0.00002470","TLE_LINE2":"2 44972  53.0542 229.8102 0001236  67.9585 292.1535 15.06403432137515","PERIAPSIS":"546.347","DECAY_DATE":null,"INCLINATION":"53.0542","REF_FRAME":"TEME","CLASSIFICATION_TYPE":"U","SEMIMAJOR_AXIS":"6925.338","OBJECT_ID":"2020-001BL","EPHEMERIS_TYPE":"0","SITE":"AFETR","TIME_SYSTEM":"UTC","GP_ID":"207265655","COUNTRY_CODE":"US","PERIOD":"95.592","BSTAR":"0.00018461000000","RA_OF_ASC_NODE":"229.8102","FILE":"3506647","REV_AT_EPOCH":"13751","ECCENTRICITY":"0.00012360","ELEMENT_SET_NO":"999","CENTER_NAME":"EARTH","OBJECT_NAME":"STARLINK-1107","NORAD_CAT_ID":"44972","RCS_SIZE":"LARGE","APOAPSIS":"548.059","MEAN_MOTION_DDOT":"0.0000000000000","MEAN_MOTION":"15.06403432","LAUNCH_DATE":"2020-01-07","MEAN_ELEMENT_THEORY":"SGP4","MEAN_ANOMALY":"292.1535","TLE_LINE1":"1 44972U 20001BL  22183.52252245  .00002470  00000-0  18461-3 0  9998","ARG_OF_PERICENTER":"67.9585"},{"ARG_OF_PERICENTER":"66.5726","TLE_LINE1":"1 44973U 20001BM  22183.83213766 -.00000326  00000-0 -29986-5 0  9994","MEAN_ANOMALY":"293.5412","MEAN_MOTION_DDOT":"0.0000000000000","APOAPSIS":"548.203","MEAN_ELEMENT_THEORY":"SGP4","LAUNCH_DATE":"2020-01-07","MEAN_MOTION":"15.06397911","ECCENTRICITY":"0.00014190","ELEMENT_SET_NO":"999","CENTER_NAME":"EARTH","RA_OF_ASC_NODE":"228.4116","FILE":"3506767","REV_AT_EPOCH":"13755","RCS_SIZE":"LARGE","OBJECT_NAME":"STARLINK-1115","NORAD_CAT_ID":"44973","BSTAR":"-0.00000299860000","PERIOD":"95.592","GP_ID":"207273337","COUNTRY_CODE":"US","OBJECT_ID":"2020-001BM","EPHEMERIS_TYPE":"0","TIME_SYSTEM":"UTC","SITE":"AFETR","INCLINATION":"53.0532","DECAY_DATE":null,"SEMIMAJOR_AXIS":"6925.355","CLASSIFICATION_TYPE":"U","REF_FRAME":"TEME","OBJECT_TYPE":"PAYLOAD","PERIAPSIS":"546.237","TLE_LINE2":"2 44973  53.0532 228.4116 0001419  66.5726 293.5412 15.06397911137557","MEAN_MOTION_DOT":"-0.00000326","EPOCH":"2022-07-02T19:58:16.693824"},{"BSTAR":"0.00006168900000","ELEMENT_SET_NO":"999","CENTER_NAME":"EARTH","ECCENTRICITY":"0.00021210","FILE":"3506647","REV_AT_EPOCH":"13382","RA_OF_ASC_NODE":"190.3181","RCS_SIZE":"LARGE","NORAD_CAT_ID":"45044","OBJECT_NAME":"STARLINK-1132","APOAPSIS":"548.711","MEAN_MOTION_DDOT":"0.0000000000000","MEAN_ELEMENT_THEORY":"SGP4","LAUNCH_DATE":"2020-01-29","MEAN_MOTION":"15.06390593","ARG_OF_PERICENTER":"53.3503","MEAN_ANOMALY":"306.7681","TLE_LINE1":"1 45044U 20006A   22183.40826718  .00000637  00000-0  61689-4 0  9997","OBJECT_TYPE":"PAYLOAD","PERIAPSIS":"545.774","MEAN_MOTION_DOT":"0.00000637","EPOCH":"2022-07-02T09:47:54.284352","TLE_LINE2":"2 45044  53.0526 190.3181 0002121  53.3503 306.7681 15.06390593133827","INCLINATION":"53.0526","DECAY_DATE":null,"CLASSIFICATION_TYPE":"U","REF_FRAME":"TEME","SEMIMAJOR_AXIS":"6925.377","OBJECT_ID":"2020-006A","EPHEMERIS_TYPE":"0","TIME_SYSTEM":"UTC","SITE":"AFETR","PERIOD":"95.593","COUNTRY_CODE":"US","GP_ID":"207263910"},{"PERIAPSIS":"545.720","TLE_LINE2":"2 45045  53.0538 210.0612 0002148  50.6998 309.4181 15.06401972133556","MEAN_MOTION_DOT":"0.00000474","EPOCH":"2022-07-02T11:03:28.170144","OBJECT_TYPE":"PAYLOAD","SEMIMAJOR_AXIS":"6925.343","CLASSIFICATION_TYPE":"U","REF_FRAME":"TEME","INCLINATION":"53.0538","DECAY_DATE":null,"TIME_SYSTEM":"UTC","SITE":"AFETR","OBJECT_ID":"2020-006B","EPHEMERIS_TYPE":"0","PERIOD":"95.592","GP_ID":"207264660","COUNTRY_CODE":"US","BSTAR":"0.00005076100000","RCS_SIZE":"LARGE","OBJECT_NAME":"STARLINK-1120","NORAD_CAT_ID":"45045","ECCENTRICITY":"0.00021480","ELEMENT_SET_NO":"999","CENTER_NAME":"EARTH","FILE":"3506647","RA_OF_ASC_NODE":"210.0612","REV_AT_EPOCH":"13355","MEAN_ELEMENT_THEORY":"SGP4","LAUNCH_DATE":"2020-01-29","MEAN_MOTION":"15.06401972","APOAPSIS":"548.695","MEAN_MOTION_DDOT":"0.0000000000000","ARG_OF_PERICENTER":"50.6998","TLE_LINE1":"1 45045U 20006B   22183.46074271  .00000474  00000-0  50761-4 0  9991","MEAN_ANOMALY":"309.4181"},{"BSTAR":"0.00061715000000","ELEMENT_SET_NO":"999","ECCENTRICITY":"0.00022460","CENTER_NAME":"EARTH","FILE":"3506647","RA_OF_ASC_NODE":"197.0295","REV_AT_EPOCH":"13369","RCS_SIZE":"LARGE","OBJECT_NAME":"STARLINK-1129","NORAD_CAT_ID":"45046","APOAPSIS":"521.319","MEAN_MOTION_DDOT":"0.0000000000000","LAUNCH_DATE":"2020-01-29","MEAN_ELEMENT_THEORY":"SGP4","MEAN_MOTION":"15.15398866","ARG_OF_PERICENTER":"21.2870","TLE_LINE1":"1 45046U 20006C   22183.46664384  .00011504  00000-0  61715-3 0  9998","MEAN_ANOMALY":"338.8215","OBJECT_TYPE":"PAYLOAD","PERIAPSIS":"518.221","TLE_LINE2":"2 45046  52.9942 197.0295 0002246  21.2870 338.8215 15.15398866133693","MEAN_MOTION_DOT":"0.00011504","EPOCH":"2022-07-02T11:11:58.027776","INCLINATION":"52.9942","DECAY_DATE":null,"SEMIMAJOR_AXIS":"6897.905","CLASSIFICATION_TYPE":"U","REF_FRAME":"TEME","EPHEMERIS_TYPE":"0","OBJECT_ID":"2020-006C","TIME_SYSTEM":"UTC","SITE":"AFETR","PERIOD":"95.024","COUNTRY_CODE":"US","GP_ID":"207264912"},{"TLE_LINE1":"1 45047U 20006D   22183.46540250  .00000387  00000-0  44863-4 0  9997","MEAN_ANOMALY":"300.4039","ARG_OF_PERICENTER":"59.7093","APOAPSIS":"548.253","MEAN_MOTION_DDOT":"0.0000000000000","MEAN_MOTION":"15.06387926","LAUNCH_DATE":"2020-01-29","MEAN_ELEMENT_THEORY":"SGP4","FILE":"3506647","REV_AT_EPOCH":"13355","RA_OF_ASC_NODE":"210.0606","ELEMENT_SET_NO":"999","CENTER_NAME":"EARTH","ECCENTRICITY":"0.00014480","OBJECT_NAME":"STARLINK-1131","NORAD_CAT_ID":"45047","RCS_SIZE":"LARGE","BSTAR":"0.00004486300000","GP_ID":"207265662","COUNTRY_CODE":"US","PERIOD":"95.593","OBJECT_ID":"2020-006D","EPHEMERIS_TYPE":"0","SITE":"AFETR","TIME_SYSTEM":"UTC","DECAY_DATE":null,"INCLINATION":"53.0539","SEMIMAJOR_AXIS":"6925.386","REF_FRAME":"TEME","CLASSIFICATION_TYPE":"U","OBJECT_TYPE":"PAYLOAD","TLE_LINE2":"2 45047  53.0539 210.0606 0001448  59.7093 300.4039 15.06387926133555","EPOCH":"2022-07-02T11:10:10.776000","MEAN_MOTION_DOT":"0.00000387","PERIAPSIS":"546.248"},{"FILE":"3506647","RA_OF_ASC_NODE":"210.0117","REV_AT_EPOCH":"13355","CENTER_NAME":"EARTH","ELEMENT_SET_NO":"999","ECCENTRICITY":"0.00012720","NORAD_CAT_ID":"45048","OBJECT_NAME":"STARLINK-1134","RCS_SIZE":"LARGE","BSTAR":"-0.00005509300000","TLE_LINE1":"1 45048U 20006E   22183.47275781 -.00001102  00000-0 -55093-4 0  9998","MEAN_ANOMALY":"281.6486","ARG_OF_PERICENTER":"78.4646","MEAN_MOTION_DDOT":"0.0000000000000","APOAPSIS":"548.121","MEAN_MOTION":"15.06391211","LAUNCH_DATE":"2020-01-29","MEAN_ELEMENT_THEORY":"SGP4","DECAY_DATE":null,"INCLINATION":"53.0536","SEMIMAJOR_AXIS":"6925.375","CLASSIFICATION_TYPE":"U","REF_FRAME":"TEME","OBJECT_TYPE":"PAYLOAD","TLE_LINE2":"2 45048  53.0536 210.0117 0001272  78.4646 281.6486 15.06391211133555","MEAN_MOTION_DOT":"-0.00001102","EPOCH":"2022-07-02T11:20:46.274784","PERIAPSIS":"546.360","COUNTRY_CODE":"US","GP_ID":"207264410","PERIOD":"95.593","EPHEMERIS_TYPE":"0","OBJECT_ID":"2020-006E","SITE":"AFETR","TIME_SYSTEM":"UTC"}];
